DIWATA-2B               
1 43678U 18084H   23306.52154103  .00001817  00000+0  17587-3 0  9991
2 43678  98.0434  93.5067 0010566  67.0155 293.2178 14.94039520272910
ES'HAIL 2               
1 43700U 18090A   23306.24436117  .00000145  00000+0  00000+0 0  9992
2 43700   0.0131 264.8264 0001714 348.7376 261.4889  1.00273423 18070
FOX-1CLIFF (AO-95)      
1 43770U 18099N   23306.44959206  .00008349  00000+0  64371-3 0  9998
2 43770  97.5787   4.4384 0015136  52.2079 308.0514 15.01762666268344
ITASAT 1                
1 43786U 18099AE  23306.43118385  .00006171  00000+0  48598-3 0  9993
2 43786  97.5516   5.2376 0020145  35.9442 324.3132 15.00992125268373
JY1SAT (JO-97)          
1 43803U 18099AX  23306.44175654  .00008660  00000+0  64942-3 0  9992
2 43803  97.5560   5.5601 0010692   5.9960 354.1391 15.02851404268446
UWE-4                   
1 43880U 18111E   23306.22024468  .00010993  00000+0  78794-3 0  9996
2 43880  97.6215 209.3406 0019727  66.1212 294.2079 15.04382224265101
NEXUS (FO-99)           
1 43937U 19003F   23306.59423326  .00923691  41887-3  17511-2 0  9995
2 43937  97.0516 334.6932 0005778 136.9244 223.2488 16.00794215267719
JAISAT-1                
1 44419U 19038F   23306.43355416  .00046537  00000+0  11739-2 0  9995
2 44419  97.6841 293.6738 0013550 152.1585 208.0388 15.39621494239735
DUCHIFAT-3              
1 44854U 19089C   23306.50223600  .00012879  00000+0  79734-3 0  9993
2 44854  36.9617 343.0124 0006168  14.8708 345.2218 15.09207192213787
TIANYAN 01              
1 44881U 19093C   23306.57397233  .00001480  00000+0  18868-3 0  9996
2 44881  97.8515  22.6254 0014349 352.2343   7.8646 14.82930854209305
RS-44 & BREEZE-KM R/B   
1 44909U 19096E   23306.60372642  .00000016  00000+0  24343-4 0  9991
2 44909  82.5200 255.9560 0216509 223.1491 135.2468 12.79723571179866
BY70-2                  
1 45857U 20042B   23306.55477507  .00037123  00000+0  31402-2 0  9998
2 45857  97.9153  27.5160 0008804 264.5617  95.4600 14.97898592180192
SALSAT                  
1 46495U 20068K   23306.42781272  .00007805  00000+0  49084-3 0  9998
2 46495  97.7860 256.1429 0015538  17.4954 342.6807 15.09408276169916
RADFXSAT-2 (AO-109)     
1 47311U 21002C   23306.55684317  .00065970  00000+0  11599-2 0  9997
2 47311  60.6769 243.0238 0020988  26.8593 333.3588 15.49800518155649
UVSQ-SAT                
1 47438U 21006AB  23306.38309739  .00026610  00000+0  91624-3 0  9990
2 47438  97.3654   1.8458 0007559 318.9793  41.0879 15.29990724153730
LEDSAT                  
1 49069U 21073D   23306.18282569  .00013233  00000+0  66378-3 0  9990
2 49069  97.4679  14.8750 0022428   5.4994 354.6482 15.17230785121809
XW-3 (CAS-9)            
1 50466U 21131B   23306.53753712  .00000808  00000+0  27516-3 0  9995
2 50466  98.5445  27.6166 0005311  89.5162 270.6634 14.39154400 97259
TEVEL-3                 
1 50988U 22002E   23306.46178647  .00039506  00000+0  12478-2 0  9999
2 50988  97.4164  13.0064 0007167 105.3830 254.8204 15.32693648 99884
TEVEL-8                 
1 50989U 22002F   23306.55240092  .00040381  00000+0  12783-2 0  9996
2 50989  97.4179  13.1710 0007169 104.7671 255.4366 15.32617534 99895
TEVEL-5                 
1 50998U 22002Q   23306.44908312  .00041214  00000+0  12523-2 0  9998
2 50998  97.4157  13.5721 0008101  99.7311 260.4847 15.33911331 99925
TEVEL-6                 
1 50999U 22002R   23306.44794803  .00040604  00000+0  12344-2 0  9990
2 50999  97.4157  13.5618 0008083  99.6833 260.5323 15.33898616 99928
TEVEL-1                 
1 51013U 22002AF  23306.54180775  .00041805  00000+0  13224-2 0  9998
2 51013  97.4154  13.0035 0007090 105.1785 255.0242 15.32633336 99897
TEVEL-7                 
1 51062U 22002CG  23306.55104748  .00040384  00000+0  12769-2 0  9993
2 51062  97.4174  13.1398 0007099 104.2616 255.9415 15.32654738 99898
TEVEL-4                 
1 51063U 22002CH  23306.56339313  .00039752  00000+0  12607-2 0  9991
2 51063  97.4172  13.1176 0007196 104.0452 256.1590 15.32562238 99895
TEVEL-2                 
1 51069U 22002CP  23306.46294076  .00038861  00000+0  12271-2 0  9999
2 51069  97.4161  12.9752 0007117 105.4573 254.7456 15.32706431 99887
GREENCUBE               
1 53106U 22080B   23304.23962698 -.00000003  00000+0  00000+0 0  9996
2 53106  70.1402 272.4281 0008307 159.3923 200.7073  6.42557230 30496
CYCLOPS (RS29S)         
1 53373U 22096D   23306.57794049  .00089870  00000+0  14156-2 0  9999
2 53373  97.3990 215.5122 0004894  87.3742 272.8071 15.53248052 69056
MONITOR-1 (RS32S)       
1 53374U 22096E   23306.60573907  .00075699  00000+0  12889-2 0  9997
2 53374  97.3939 215.0715 0004895  78.0057 282.1743 15.51123383 69035
KUZBASS-300 (RS34S)     
1 53375U 22096F   23306.58043642  .00051390  00000+0  10592-2 0  9994
2 53375  97.3995 214.1501 0004039  73.1755 286.9936 15.45734307 68966
UTMN (RS23S)            
1 53376U 22096G   23306.59929100  .00055940  00000+0  11012-2 0  9991
2 53376  97.3984 214.4137 0004451  79.9861 280.1891 15.47053177 68982
MIET-AIS (RS28S)        
1 53377U 22096H   23306.59878209  .00045960  00000+0  99069-3 0  9995
2 53377  97.4009 213.9998 0003883  73.4670 286.7004 15.44440686 68953
KAI-1 (RS26S)           
1 53378U 22096J   23306.55384991  .00037592  00000+0  89014-3 0  9993
2 53378  97.4031 213.3442 0003551  69.8772 290.2857 15.41678093 68904
ISOI (RS19S)            
1 53381U 22096M   23306.59243483  .00049091  00000+0  10197-2 0  9993
2 53381  97.4007 214.4319 0001421  58.2177 301.9211 15.45523769 68986
CUBESX-HSE-2 (RS21S)    
1 53383U 22096P   23306.55597563  .00051226  00000+0  10093-2 0  9990
2 53383  97.3994 214.6390 0001525  63.0819 297.0586 15.47057848 68998
SIREN (RS30S)           
1 53384U 22096Q   23306.58687061  .00044942  00000+0  98776-3 0  9999
2 53384  97.4013 214.0304 0001105  46.6277 313.5063 15.43875295 68950
GEOSCAN-EDELVEIS (RS20S)
1 53385U 22096R   23306.57408700  .00097400  00000+0  13886-2 0  9995
2 53385  97.3972 216.3886 0002390 111.2486 248.9023 15.55971502 69142
VIZARD (RS33S)          
1 53386U 22096S   23306.45859161  .00221825  00000+0  17878-2 0  9999
2 53386  97.3939 218.3855 0005084 104.6368 255.5458 15.70213870 69254
CAS-5A (FO-118)         
1 54684U 22167C   23306.63366632  .00019664  00000+0  95780-3 0  9991
2 54684  97.5807  83.7978 0012174 215.7101 144.3319 15.18329392 49651
STRATOSAT-TK 1 (RS52S)  
1 57167U 23091B   23306.53171818  .00012745  00000+0  88280-3 0  9996
2 57167  97.6479 356.0351 0017734 171.2861 188.8677 15.05657702 19239
UMKA 1 (RS40S)          
1 57172U 23091G   23306.56199302  .00006547  00000+0  46931-3 0  9993
2 57172  97.6469 355.9941 0017966 172.7519 187.3970 15.04571574 19231
CUBESX-HSE 3 (RS42S)    
1 57178U 23091N   23306.56345680  .00008843  00000+0  62825-3 0  9992
2 57178  97.6504 356.0555 0018983 167.8140 192.3549 15.04791717 19236
MONITOR-4 (RS57S)       
1 57182U 23091S   23306.57142631  .00007552  00000+0  53954-3 0  9998
2 57182  97.6484 356.0272 0019197 168.6170 191.5494 15.04630802 19231
MONITOR-2 (RS39S)       
1 57184U 23091U   23306.57616568  .00004847  00000+0  34423-3 0  9999
2 57184  97.6493 356.1796 0015352 160.9396 199.2408 15.05089844 19245
SVYATOBOR 1 (RS60S)     
1 57187U 23091X   23306.61511289  .00007080  00000+0  49343-3 0  9990
2 57187  97.6513 356.2826 0015168 158.4480 201.7388 15.05637633 19259
VIZARD-METEO (RS38S)    
1 57189U 23091Z   23306.57985997  .00008181  00000+0  56084-3 0  9991
2 57189  97.6492 356.3170 0014196 157.0339 203.1526 15.06214345 19250
NANOZOND 1 (RS49S)      
1 57190U 23091AA  23306.61255493  .00011645  00000+0  78064-3 0  9990
2 57190  97.6479 356.3803 0012751 161.6921 198.4768 15.06960529 19260
POLYTECH-UNIVERSE 3 (R*)
1 57191U 23091AB  23306.56100855  .00005769  00000+0  40997-3 0  9990
2 57191  97.6467 355.9936 0020664 179.5573 180.5675 15.04906610 19238
UTMN 2 (RS27S)          
1 57203U 23091AP  23306.58940418  .00006672  00000+0  46038-3 0  9999
2 57203  97.6499 356.3041 0014628 156.3214 203.8689 15.06039241 19252
ARCCUBE 1 (RS25S)       
1 57205U 23091AR  23306.60969140  .00012577  00000+0  83878-3 0  9991
2 57205  97.6461 356.3565 0013038 163.3478 196.8180 15.07128089 19266
KUZGTU 1 (RS47S)        
1 57217U 23091AV  23306.56117372  .00008350  00000+0  59361-3 0  9995
2 57217  97.6482 356.0177 0018857 169.0789 191.0851 15.04785805 19231
